{"fetched_at":"2026-03-29T16:36:15Z","count":15609,"tles":[{"name":"STARLINK-31524","line1":"1 59506U 24071Y   26087.71737460  .00010339  00000+0  38385-3 0  9992","line2":"2 59506  43.0013 225.3439 0002008 269.8990  90.1631 15.27652505111190","category":"Starlink"}]}