{
  "norad_id": 59506,
  "name": "STARLINK-31524",
  "history": [
    {
      "epoch": "2026-03-28T17:13:01.165440Z",
      "apogee_km": 484.2100241963781,
      "perigee_km": 481.45397294965096,
      "latitude_deg": -3.338964870064518e-05,
      "longitude_deg": 140.95519586757823,
      "height_km": 482.61174863471314,
      "semi_major_axis_km": 6860.968998573015,
      "eccentricity": 0.00020085,
      "inclination_deg": 43.0013,
      "raan_deg": 225.3439,
      "arg_perigee_deg": 269.899,
      "mean_anomaly_deg": 90.1631,
      "mean_motion_rev_day": 15.27652505
    }
  ]
}